ONEWEB-0320             
1 49190U 21083E   24204.27302752  .00000069  00000+0  14275-3 0  9993
2 49190  87.9147 113.8120 0001911  77.5919 282.5427 13.18684836138399
ONEWEB-0322             
1 49192U 21083G   24204.64363346 -.00000103  00000+0 -31726-3 0  9993
2 49192  87.8920  98.4893 0001525  64.1748 295.9538 13.13467726139740
ONEWEB-0324             
1 49193U 21083H   24204.71406057 -.00000002  00000+0 -36838-4 0  9997
2 49193  87.9146 113.7058 0001820  85.0199 275.1141 13.18684435138478
ONEWEB-0325             
1 49194U 21083J   24204.26354393  .00000087  00000+0  18740-3 0  9995
2 49194  87.9147 113.8098 0001929  75.4221 284.7125 13.18688075138421
ONEWEB-0326             
1 49195U 21083K   24204.27776381  .00000096  00000+0  21059-3 0  9999
2 49195  87.9144 113.8049 0002251  89.9141 270.2249 13.18684392138419
ONEWEB-0327             
1 49196U 21083L   24204.70697949  .00000008  00000+0 -11396-4 0  9998
2 49196  87.9144 113.7320 0002263  83.3198 276.8192 13.18684487138496
ONEWEB-0328             
1 49197U 21083M   24204.71029324  .00000173  00000+0  43953-3 0  9991
2 49197  87.8909  98.4567 0001810  81.2224 278.9110 13.13470073139731
